[{"OBJECT_NAME":"TIANQIN 1 (CAS-6)","OBJECT_ID":"2019-093A","EPOCH":"2026-04-05T13:09:24.314976","MEAN_MOTION":14.95085169,"ECCENTRICITY":0.00101042,"INCLINATION":97.7805,"RA_OF_ASC_NODE":179.9358,"ARG_OF_PERICENTER":299.0499,"MEAN_ANOMALY":60.9709,"EPHEMERIS_TYPE":0,"CLASSIFICATION_TYPE":"U","NORAD_CAT_ID":44879,"ELEMENT_SET_NO":999,"REV_AT_EPOCH":34119,"BSTAR":0.00039862239,"MEAN_MOTION_DOT":4.315e-5,"MEAN_MOTION_DDOT":0},{"OBJECT_NAME":"ETRSS-1","OBJECT_ID":"2019-093B","EPOCH":"2026-04-05T13:47:24.531072","MEAN_MOTION":14.9546653,"ECCENTRICITY":0.00099192,"INCLINATION":97.7816,"RA_OF_ASC_NODE":180.3601,"ARG_OF_PERICENTER":298.6968,"MEAN_ANOMALY":61.3255,"EPHEMERIS_TYPE":0,"CLASSIFICATION_TYPE":"U","NORAD_CAT_ID":44880,"ELEMENT_SET_NO":999,"REV_AT_EPOCH":34120,"BSTAR":0.00070463452,"MEAN_MOTION_DOT":7.75e-5,"MEAN_MOTION_DDOT":0},{"OBJECT_NAME":"TIANYAN 01","OBJECT_ID":"2019-093C","EPOCH":"2026-04-05T14:43:15.670848","MEAN_MOTION":14.86405245,"ECCENTRICITY":0.00128538,"INCLINATION":97.7566,"RA_OF_ASC_NODE":169.6085,"ARG_OF_PERICENTER":331.5256,"MEAN_ANOMALY":28.5256,"EPHEMERIS_TYPE":0,"CLASSIFICATION_TYPE":"U","NORAD_CAT_ID":44881,"ELEMENT_SET_NO":999,"REV_AT_EPOCH":34063,"BSTAR":0.00022259625,"MEAN_MOTION_DOT":1.914e-5,"MEAN_MOTION_DDOT":0},{"OBJECT_NAME":"TIANYAN 02","OBJECT_ID":"2019-093D","EPOCH":"2026-04-05T13:41:54.544416","MEAN_MOTION":15.04326846,"ECCENTRICITY":0.00124153,"INCLINATION":97.79,"RA_OF_ASC_NODE":189.7337,"ARG_OF_PERICENTER":267.383,"MEAN_ANOMALY":92.5974,"EPHEMERIS_TYPE":0,"CLASSIFICATION_TYPE":"U","NORAD_CAT_ID":44882,"ELEMENT_SET_NO":999,"REV_AT_EPOCH":34169,"BSTAR":0.00063096238,"MEAN_MOTION_DOT":8.75e-5,"MEAN_MOTION_DDOT":0},{"OBJECT_NAME":"CBERS 4A","OBJECT_ID":"2019-093E","EPOCH":"2026-04-05T14:59:41.602848","MEAN_MOTION":14.81652722,"ECCENTRICITY":0.00031356,"INCLINATION":97.7545,"RA_OF_ASC_NODE":165.1814,"ARG_OF_PERICENTER":74.9135,"MEAN_ANOMALY":285.2425,"EPHEMERIS_TYPE":0,"CLASSIFICATION_TYPE":"U","NORAD_CAT_ID":44883,"ELEMENT_SET_NO":999,"REV_AT_EPOCH":34033,"BSTAR":0.00034998305,"MEAN_MOTION_DOT":2.703e-5,"MEAN_MOTION_DDOT":0},{"OBJECT_NAME":"WEILAI 1R","OBJECT_ID":"2019-093F","EPOCH":"2026-04-05T13:24:13.006368","MEAN_MOTION":15.0005262,"ECCENTRICITY":0.001147,"INCLINATION":97.7874,"RA_OF_ASC_NODE":185.3845,"ARG_OF_PERICENTER":279.5565,"MEAN_ANOMALY":80.4361,"EPHEMERIS_TYPE":0,"CLASSIFICATION_TYPE":"U","NORAD_CAT_ID":44884,"ELEMENT_SET_NO":999,"REV_AT_EPOCH":34153,"BSTAR":0.00048036,"MEAN_MOTION_DOT":5.93e-5,"MEAN_MOTION_DDOT":0},{"OBJECT_NAME":"FLORIPASAT-1","OBJECT_ID":"2019-093G","EPOCH":"2026-04-05T11:34:00.228576","MEAN_MOTION":15.03104344,"ECCENTRICITY":0.00113424,"INCLINATION":97.787,"RA_OF_ASC_NODE":189.2386,"ARG_OF_PERICENTER":317.2419,"MEAN_ANOMALY":42.7922,"EPHEMERIS_TYPE":0,"CLASSIFICATION_TYPE":"U","NORAD_CAT_ID":44885,"ELEMENT_SET_NO":999,"REV_AT_EPOCH":34172,"BSTAR":0.00062524708,"MEAN_MOTION_DOT":8.389e-5,"MEAN_MOTION_DDOT":0},{"OBJECT_NAME":"SHUNTIAN","OBJECT_ID":"2019-093H","EPOCH":"2026-04-05T14:04:36.021792","MEAN_MOTION":14.94804792,"ECCENTRICITY":0.00104568,"INCLINATION":97.7992,"RA_OF_ASC_NODE":184.1452,"ARG_OF_PERICENTER":311.1852,"MEAN_ANOMALY":48.8466,"EPHEMERIS_TYPE":0,"CLASSIFICATION_TYPE":"U","NORAD_CAT_ID":44886,"ELEMENT_SET_NO":999,"REV_AT_EPOCH":34133,"BSTAR":0.00050852049,"MEAN_MOTION_DOT":5.482e-5,"MEAN_MOTION_DDOT":0},{"OBJECT_NAME":"2019-093L","OBJECT_ID":"2019-093L","EPOCH":"2026-04-05T11:13:20.004960","MEAN_MOTION":14.94149585,"ECCENTRICITY":0.00107029,"INCLINATION":97.7568,"RA_OF_ASC_NODE":174.6044,"ARG_OF_PERICENTER":295.6683,"MEAN_ANOMALY":64.3431,"EPHEMERIS_TYPE":0,"CLASSIFICATION_TYPE":"U","NORAD_CAT_ID":44889,"ELEMENT_SET_NO":999,"REV_AT_EPOCH":34094,"BSTAR":0.00035911729,"MEAN_MOTION_DOT":3.79e-5,"MEAN_MOTION_DDOT":0},{"OBJECT_NAME":"ELEKTRO-L 3","OBJECT_ID":"2019-095A","EPOCH":"2026-04-04T23:24:55.714176","MEAN_MOTION":1.00272372,"ECCENTRICITY":0.0001391,"INCLINATION":0.0753,"RA_OF_ASC_NODE":61.4371,"ARG_OF_PERICENTER":306.4789,"MEAN_ANOMALY":252.5355,"EPHEMERIS_TYPE":0,"CLASSIFICATION_TYPE":"U","NORAD_CAT_ID":44903,"ELEMENT_SET_NO":999,"REV_AT_EPOCH":2297,"BSTAR":0,"MEAN_MOTION_DOT":-9.5e-7,"MEAN_MOTION_DDOT":0},{"OBJECT_NAME":"GONETS-M 14","OBJECT_ID":"2019-096A","EPOCH":"2026-04-05T14:23:35.740608","MEAN_MOTION":12.4286858,"ECCENTRICITY":0.00122909,"INCLINATION":82.5203,"RA_OF_ASC_NODE":129.6482,"ARG_OF_PERICENTER":315.8632,"MEAN_ANOMALY":44.1466,"EPHEMERIS_TYPE":0,"CLASSIFICATION_TYPE":"U","NORAD_CAT_ID":44905,"ELEMENT_SET_NO":999,"REV_AT_EPOCH":28466,"BSTAR":-7.4234714e-5,"MEAN_MOTION_DOT":0,"MEAN_MOTION_DDOT":0},{"OBJECT_NAME":"GONETS-M 15","OBJECT_ID":"2019-096B","EPOCH":"2026-04-05T13:10:08.277024","MEAN_MOTION":12.42868782,"ECCENTRICITY":0.00146107,"INCLINATION":82.5223,"RA_OF_ASC_NODE":130.1297,"ARG_OF_PERICENTER":339.4975,"MEAN_ANOMALY":20.5517,"EPHEMERIS_TYPE":0,"CLASSIFICATION_TYPE":"U","NORAD_CAT_ID":44906,"ELEMENT_SET_NO":999,"REV_AT_EPOCH":28462,"BSTAR":-0.00062136691,"MEAN_MOTION_DOT":-7.6e-7,"MEAN_MOTION_DDOT":0},{"OBJECT_NAME":"GONETS-M 16","OBJECT_ID":"2019-096C","EPOCH":"2026-04-05T13:49:41.183040","MEAN_MOTION":12.4288949,"ECCENTRICITY":0.00113243,"INCLINATION":82.5167,"RA_OF_ASC_NODE":129.0995,"ARG_OF_PERICENTER":23.6864,"MEAN_ANOMALY":336.4735,"EPHEMERIS_TYPE":0,"CLASSIFICATION_TYPE":"U","NORAD_CAT_ID":44907,"ELEMENT_SET_NO":999,"REV_AT_EPOCH":28461,"BSTAR":-9.4550081e-5,"MEAN_MOTION_DOT":-3.0e-8,"MEAN_MOTION_DDOT":0},{"OBJECT_NAME":"RS-44 & BREEZE-KM R/B","OBJECT_ID":"2019-096E","EPOCH":"2026-04-05T12:45:28.971648","MEAN_MOTION":12.79747801,"ECCENTRICITY":0.0216757,"INCLINATION":82.5257,"RA_OF_ASC_NODE":27.9797,"ARG_OF_PERICENTER":314.5136,"MEAN_ANOMALY":43.8428,"EPHEMERIS_TYPE":0,"CLASSIFICATION_TYPE":"U","NORAD_CAT_ID":44909,"ELEMENT_SET_NO":999,"REV_AT_EPOCH":29305,"BSTAR":3.3456073e-5,"MEAN_MOTION_DOT":1.8e-7,"MEAN_MOTION_DDOT":0},{"OBJECT_NAME":"JILIN-1 KUANFU 01","OBJECT_ID":"2020-003A","EPOCH":"2026-04-05T13:10:32.055168","MEAN_MOTION":15.10308409,"ECCENTRICITY":0.00097849,"INCLINATION":97.5059,"RA_OF_ASC_NODE":170.9341,"ARG_OF_PERICENTER":183.2809,"MEAN_ANOMALY":176.8358,"EPHEMERIS_TYPE":0,"CLASSIFICATION_TYPE":"U","NORAD_CAT_ID":45016,"ELEMENT_SET_NO":999,"REV_AT_EPOCH":34436,"BSTAR":0.00033402518,"MEAN_MOTION_DOT":5.416e-5,"MEAN_MOTION_DDOT":0},{"OBJECT_NAME":"XINGYUN-2 01","OBJECT_ID":"2020-028A","EPOCH":"2026-04-05T14:13:08.779872","MEAN_MOTION":15.11491414,"ECCENTRICITY":0.00108573,"INCLINATION":97.4857,"RA_OF_ASC_NODE":89.4578,"ARG_OF_PERICENTER":92.6823,"MEAN_ANOMALY":267.565,"EPHEMERIS_TYPE":0,"CLASSIFICATION_TYPE":"U","NORAD_CAT_ID":45602,"ELEMENT_SET_NO":999,"REV_AT_EPOCH":32387,"BSTAR":0.00022020354,"MEAN_MOTION_DOT":3.669e-5,"MEAN_MOTION_DDOT":0},{"OBJECT_NAME":"XINGYUN-2 02","OBJECT_ID":"2020-028B","EPOCH":"2026-04-05T13:24:15.657120","MEAN_MOTION":15.11245226,"ECCENTRICITY":0.00115915,"INCLINATION":97.5098,"RA_OF_ASC_NODE":102.837,"ARG_OF_PERICENTER":154.0553,"MEAN_ANOMALY":206.1261,"EPHEMERIS_TYPE":0,"CLASSIFICATION_TYPE":"U","NORAD_CAT_ID":45603,"ELEMENT_SET_NO":999,"REV_AT_EPOCH":32386,"BSTAR":0.00029825031,"MEAN_MOTION_DOT":4.959e-5,"MEAN_MOTION_DDOT":0}]
