TIANQIN 1 (CAS-6)       
1 44879U 19093A   26095.54819809  .00004315  00000+0  39862-3 0  9993
2 44879  97.7805 179.9358 0010104 299.0499  60.9709 14.95085169341197
ETRSS-1                 
1 44880U 19093B   26095.57458948  .00007750  00000+0  70463-3 0  9999
2 44880  97.7816 180.3601 0009919 298.6968  61.3255 14.95466530341204
TIANYAN 01              
1 44881U 19093C   26095.61337582  .00001914  00000+0  22260-3 0  9993
2 44881  97.7566 169.6085 0012853 331.5256  28.5256 14.86405245340639
TIANYAN 02              
1 44882U 19093D   26095.57077019  .00008750  00000+0  63096-3 0  9992
2 44882  97.7900 189.7337 0012415 267.3830  92.5974 15.04326846341698
CBERS 4A                
1 44883U 19093E   26095.62478707  .00002703  00000+0  34998-3 0  9999
2 44883  97.7545 165.1814 0003135  74.9135 285.2425 14.81652722340332
WEILAI 1R               
1 44884U 19093F   26095.55848387  .00005930  00000+0  48036-3 0  9990
2 44884  97.7874 185.3845 0011470 279.5565  80.4361 15.00052620341537
FLORIPASAT-1            
1 44885U 19093G   26095.48194709  .00008389  00000+0  62525-3 0  9995
2 44885  97.7870 189.2386 0011342 317.2419  42.7922 15.03104344341722
SHUNTIAN                
1 44886U 19093H   26095.58652803  .00005482  00000+0  50852-3 0  9992
2 44886  97.7992 184.1452 0010456 311.1852  48.8466 14.94804792341335
2019-093L               
1 44889U 19093L   26095.46759265  .00003790  00000+0  35912-3 0  9992
2 44889  97.7568 174.6044 0010702 295.6683  64.3431 14.94149585340943
ELEKTRO-L 3             
1 44903U 19095A   26094.97564484 -.00000095  00000+0  00000+0 0  9995
2 44903   0.0753  61.4371 0001391 306.4789 252.5355  1.00272372 22971
GONETS-M 14             
1 44905U 19096A   26095.59971922  .00000000  00000+0 -74235-4 0  9998
2 44905  82.5203 129.6482 0012290 315.8632  44.1466 12.42868580284663
GONETS-M 15             
1 44906U 19096B   26095.54870691 -.00000076  00000+0 -62137-3 0  9996
2 44906  82.5223 130.1297 0014610 339.4975  20.5517 12.42868782284622
GONETS-M 16             
1 44907U 19096C   26095.57617110 -.00000003  00000+0 -94550-4 0  9990
2 44907  82.5167 129.0995 0011324  23.6864 336.4735 12.42889490284619
RS-44 & BREEZE-KM R/B   
1 44909U 19096E   26095.53158532  .00000018  00000+0  33456-4 0  9998
2 44909  82.5257  27.9797 0216757 314.5136  43.8428 12.79747801293053
JILIN-1 KUANFU 01       
1 45016U 20003A   26095.54898212  .00005416  00000+0  33403-3 0  9993
2 45016  97.5059 170.9341 0009784 183.2809 176.8358 15.10308409344366
XINGYUN-2 01            
1 45602U 20028A   26095.59246273  .00003669  00000+0  22020-3 0  9991
2 45602  97.4857  89.4578 0010857  92.6823 267.5650 15.11491414323876
XINGYUN-2 02            
1 45603U 20028B   26095.55851455  .00004959  00000+0  29825-3 0  9995
2 45603  97.5098 102.8370 0011591 154.0553 206.1261 15.11245226323868
